{"type": "FeatureCollection", "features": [ {"type": "Feature", "properties": {"norad_id": 61183, "name": "GSAT0226 (GALILEO 31)", "group": "galileo", "lat": 43.00942312102286, "lon": 6.2104547291003716, "alt_km": 23214.717445411166, "timestamp": "2025-12-09T05:43:20.988922+00:00", "meta": {"OBJECT_NAME": "GSAT0226 (GALILEO 31)", "OBJECT_ID": "2024-167B", "EPOCH": "2025-12-08T04:07:13.317888", "MEAN_MOTION": 1.70473397, "ECCENTRICITY": 7.98e-05, "INCLINATION": 55.2409, "RA_OF_ASC_NODE": 226.5616, "ARG_OF_PERICENTER": 122.0254, "MEAN_ANOMALY": 67.2121, "EPHEMERIS_TYPE": 0, "CLASSIFICATION_TYPE": "U", "NORAD_CAT_ID": 61183, "ELEMENT_SET_NO": 999, "REV_AT_EPOCH": 759, "BSTAR": 0, "MEAN_MOTION_DOT": 1.9e-07, "MEAN_MOTION_DDOT": 0}, "tle": {"line1": "1 61183U 24167B   25342.17168192  .00000019  00000+0  00000+0 0  9998", "line2": "2 61183  55.2409 226.5616 0000798 122.0254  67.2121  1.70473397  7595"}}, "geometry": {"type": "Point", "coordinates": [6.2104547291003716, 43.00942312102286]}}]}